NORAD_CAT_ID,OBJECT_NAME,OBJECT_TYPE,EPOCH,MEAN_MOTION,ECCENTRICITY,INCLINATION,RA_OF_ASC_NODE,ARG_OF_PERICENTER,MEAN_ANOMALY,BSTAR,MEAN_MOTION_DOT,MEAN_MOTION_DDOT,TLE_LINE0,TLE_LINE1,TLE_LINE2,SEMIMAJOR_AXIS,PERIOD,APOGEE,PERIGEE,DECAYED
54761.0,STARLINK-5202,PAYLOAD,2023-02-03 22:00:00,15.08819807,0.0001409,53.2172,76.0966,96.9218,75.5958,0.0025093,0.00039851,0.0,0 STARLINK-5202,1 54761U 22175D   23034.91667824  .00039851  00000-0  25093-2 0  9992,2 54761  53.2172  76.0966 0001409  96.9218  75.5958 15.08819807  7203,6917.942,95.439,540.782,538.832,0.0
54761.0,STARLINK-5202,PAYLOAD,2023-02-04 00:00:00,15.08816253,0.000144,53.2171,75.7222,98.0401,167.3758,0.0036106,0.00057607,0.0,0 STARLINK-5202,1 54761U 22175D   23035.00001157  .00057607  00000-0  36106-2 0  9990,2 54761  53.2171  75.7222 0001440  98.0401 167.3758 15.08816253  1300,6917.953,95.439,540.814,538.822,0.0
54761.0,STARLINK-5202,PAYLOAD,2023-02-04 11:32:47,15.08846048,0.0001731,53.2191,73.5617,107.7757,252.3424,9.4953e-05,1.224e-05,0.0,0 STARLINK-5202,1 54761U 22175D   23035.48110883  .00001224  00000-0  94953-4 0  9999,2 54761  53.2191  73.5617 0001731 107.7757 252.3424 15.08846048  9444,6917.862,95.437,540.924,538.529,0.0
54761.0,STARLINK-5202,PAYLOAD,2023-02-04 19:29:44,15.08843857,0.000196,53.2196,72.0756,113.7189,246.4009,-7.3625e-05,-1.46e-05,0.0,0 STARLINK-5202,1 54761U 22175D   23035.81231652 -.00001460  00000-0 -73625-4 0  9991,2 54761  53.2196  72.0756 0001960 113.7189 246.4009 15.08843857  7331,6917.869,95.437,541.09,538.378,0.0
54761.0,STARLINK-5202,PAYLOAD,2023-02-05 09:48:12,15.08833487,0.0001614,53.2201,69.399,88.9384,271.1793,-6.8218e-06,-3.97e-06,0.0,0 STARLINK-5202,1 54761U 22175D   23036.40848301 -.00000397  00000-0 -68218-5 0  9993,2 54761  53.2201  69.3990 0001614  88.9384 271.1793 15.08833487  7426,6917.9,95.438,540.882,538.649,0.0
54761.0,STARLINK-5202,PAYLOAD,2023-02-05 19:20:31,15.08835942,0.0001716,53.2204,67.6146,83.0795,277.0392,5.0712e-07,-2.8e-06,0.0,0 STARLINK-5202,1 54761U 22175D   23036.80592279 -.00000280  00000-0  50712-6 0  9998,2 54761  53.2204  67.6146 0001716  83.0795 277.0392 15.08835942  9642,6917.893,95.438,540.945,538.571,0.0
54761.0,STARLINK-5202,PAYLOAD,2023-02-06 06:28:13,15.08848656,0.0001528,53.2193,65.5334,85.5153,274.6014,-2.6705e-05,-7.13e-06,0.0,0 STARLINK-5202,1 54761U 22175D   23037.26959592 -.00000713  00000-0 -26705-4 0  9999,2 54761  53.2193  65.5334 0001528  85.5153 274.6014 15.08848656  7559,6917.854,95.437,540.776,538.662,0.0
54761.0,STARLINK-5202,PAYLOAD,2023-02-06 08:03:36,15.08848134,0.0001529,53.2196,65.2364,86.2026,273.9141,-3.3196e-06,-3.41e-06,0.0,0 STARLINK-5202,1 54761U 22175D   23037.33583500 -.00000341  00000-0 -33196-5 0  9999,2 54761  53.2196  65.2364 0001529  86.2026 273.9141 15.08848134  9725,6917.856,95.437,540.778,538.663,0.0
54761.0,STARLINK-5202,PAYLOAD,2023-02-06 19:11:17,15.08850775,0.000154,53.2198,63.155,85.5535,274.5633,4.2509e-06,-2.2e-06,0.0,0 STARLINK-5202,1 54761U 22175D   23037.79951080 -.00000220  00000-0  42509-5 0  9994,2 54761  53.2198  63.1550 0001540  85.5535 274.5633 15.08850775  9795,6917.847,95.437,540.778,538.647,0.0
54761.0,STARLINK-5202,PAYLOAD,2023-02-07 12:40:30,15.08860762,0.0001404,53.2193,59.8851,78.7475,281.3675,0.00020523,2.982e-05,0.0,0 STARLINK-5202,1 54761U 22175D   23038.52813504  .00002982  00000-0  20523-3 0  9990,2 54761  53.2193  59.8851 0001404  78.7475 281.3675 15.08860762  7744,6917.817,95.436,540.653,538.711,0.0
54761.0,STARLINK-5202,PAYLOAD,2023-02-08 07:45:09,15.08844344,0.000158,53.2196,56.314,113.246,246.8699,-1.6839e-05,-5.56e-06,0.0,0 STARLINK-5202,1 54761U 22175D   23039.32303127 -.00000556  00000-0 -16839-4 0  9997,2 54761  53.2196  56.3140 0001580 113.2460 246.8699 15.08844344  7867,6917.867,95.437,540.825,538.639,0.0
54761.0,STARLINK-5202,PAYLOAD,2023-02-08 10:55:56,15.08845799,0.0001617,53.2205,55.7149,125.3905,234.7239,-7.1071e-05,-1.419e-05,0.0,0 STARLINK-5202,1 54761U 22175D   23039.45551051 -.00001419  00000-0 -71071-4 0  9990,2 54761  53.2205  55.7149 0001617 125.3905 234.7239 15.08845799 10044,6917.863,95.437,540.846,538.609,0.0
54761.0,STARLINK-5202,PAYLOAD,2023-02-09 06:00:34,15.08840781,0.0001568,53.2194,52.1464,117.2894,242.8258,-7.1134e-05,-1.42e-05,0.0,0 STARLINK-5202,1 54761U 22175D   23040.25039557 -.00001420  00000-0 -71134-4 0  9994,2 54761  53.2194  52.1464 0001568 117.2894 242.8258 15.08840781  8004,6917.878,95.438,540.828,538.658,0.0
54761.0,STARLINK-5202,PAYLOAD,2023-02-09 07:35:57,15.08845832,0.000134,53.2195,51.8475,111.4605,248.653,-0.00010881,-2.019e-05,0.0,0 STARLINK-5202,1 54761U 22175D   23040.31663347 -.00002019  00000-0 -10881-3 0  9997,2 54761  53.2195  51.8475 0001340 111.4605 248.6530 15.08845832 10177,6917.863,95.437,540.655,538.801,0.0
54761.0,STARLINK-5202,PAYLOAD,2023-02-09 10:46:42,15.08853597,0.0001241,53.2202,51.2611,84.21,275.9034,-6.8415e-05,-1.377e-05,0.0,0 STARLINK-5202,1 54761U 22175D   23040.44910801 -.00001377  00000-0 -68415-4 0  9994,2 54761  53.2202  51.2611 0001241  84.2100 275.9034 15.08853597  8030,6917.839,95.437,540.562,538.845,0.0
54761.0,STARLINK-5202,PAYLOAD,2023-02-10 01:05:13,15.0882011,0.0001163,53.2205,48.5801,110.5426,249.5691,-1.0131e-05,-4.49e-06,0.0,0 STARLINK-5202,1 54761U 22175D   23041.04529186 -.00000449  00000-0 -10131-4 0  9994,2 54761  53.2205  48.5801 0001163 110.5426 249.5691 15.08820110  8121,6917.941,95.439,540.611,539.002,0.0
54761.0,STARLINK-5202,PAYLOAD,2023-02-10 07:26:44,15.08844932,0.0001095,53.2195,47.3933,105.3582,254.7531,4.128e-05,3.69e-06,0.0,0 STARLINK-5202,1 54761U 22175D   23041.31023579  .00000369  00000-0  41280-4 0  9997,2 54761  53.2195  47.3933 0001095 105.3582 254.7531 15.08844932  8164,6917.865,95.437,540.488,538.973,0.0
54761.0,STARLINK-5202,PAYLOAD,2023-02-11 02:31:22,15.08834887,0.0001246,53.2198,43.8274,102.6914,257.4217,8.397e-05,1.049e-05,0.0,0 STARLINK-5202,1 54761U 22175D   23042.10512502  .00001049  00000-0  83970-4 0  9992,2 54761  53.2198  43.8274 0001246 102.6914 257.4217 15.08834887  8285,6917.896,95.438,540.623,538.899,0.0
54761.0,STARLINK-5202,PAYLOAD,2023-02-11 08:52:54,15.08852481,0.0001399,53.2205,42.6379,112.4924,247.6216,0.00020466,2.972e-05,0.0,0 STARLINK-5202,1 54761U 22175D   23042.37006961  .00002972  00000-0  20466-3 0  9994,2 54761  53.2205  42.6379 0001399 112.4924 247.6216 15.08852481  8321,6917.842,95.437,540.675,538.739,0.0
54761.0,STARLINK-5202,PAYLOAD,2023-02-11 16:49:50,15.08849413,0.0001054,53.2184,41.1483,77.1694,282.9416,6.4526e-05,7.4e-06,0.0,0 STARLINK-5202,1 54761U 22175D   23042.70127333  .00000740  00000-0  64526-4 0  9995,2 54761  53.2184  41.1483 0001054  77.1694 282.9416 15.08849413  8376,6917.852,95.437,540.446,538.987,0.0
54761.0,STARLINK-5202,PAYLOAD,2023-02-12 02:22:09,15.08842407,0.0001764,53.2197,39.3737,90.6012,269.5183,5.5396e-05,5.94e-06,0.0,0 STARLINK-5202,1 54761U 22175D   23043.09872516  .00000594  00000-0  55396-4 0  9990,2 54761  53.2197  39.3737 0001764  90.6012 269.5183 15.08842407  8438,6917.873,95.437,540.958,538.518,0.0
54761.0,STARLINK-5202,PAYLOAD,2023-02-12 08:43:42,15.0883917,0.0001693,53.2198,38.1833,90.0261,270.0926,2.2282e-05,6.7e-07,0.0,0 STARLINK-5202,1 54761U 22175D   23043.36368811  .00000067  00000-0  22282-4 0  9991,2 54761  53.2198  38.1833 0001693  90.0261 270.0926 15.08839170 10634,6917.883,95.438,540.919,538.577,0.0
54761.0,STARLINK-5202,PAYLOAD,2023-02-12 16:40:38,15.08831122,0.0001909,53.2198,36.694,75.3679,284.7525,-4.2916e-05,-9.71e-06,0.0,0 STARLINK-5202,1 54761U 22175D   23043.69489494 -.00000971  00000-0 -42916-4 0  9990,2 54761  53.2198  36.6940 0001909  75.3679 284.7525 15.08831122  8526,6917.908,95.438,541.093,538.452,0.0
54761.0,STARLINK-5202,PAYLOAD,2023-02-13 08:34:29,15.08843923,0.0001709,53.2186,33.7206,68.0619,292.0555,4.6797e-05,4.57e-06,0.0,0 STARLINK-5202,1 54761U 22175D   23044.35728644  .00000457  00000-0  46797-4 0  9995,2 54761  53.2186  33.7206 0001709  68.0619 292.0555 15.08843923  8625,6917.868,95.437,540.916,538.551,0.0
54761.0,STARLINK-5202,PAYLOAD,2023-02-14 10:00:39,15.08850133,0.0001215,53.22,28.9583,94.5215,265.5916,6.8836e-05,8.08e-06,0.0,0 STARLINK-5202,1 54761U 22175D   23045.41711905  .00000808  00000-0  68836-4 0  9993,2 54761  53.2200  28.9583 0001215  94.5215 265.5916 15.08850133  8788,6917.849,95.437,540.555,538.874,0.0
54761.0,STARLINK-5202,PAYLOAD,2023-02-15 05:05:18,15.08826763,9.84e-05,53.2228,25.391,90.8155,269.295,0.00014794,2.067e-05,0.0,0 STARLINK-5202,1 54761U 22175D   23046.21201567  .00002067  00000-0  14794-3 0  9992,2 54761  53.2228  25.3910 0000984  90.8155 269.2950 15.08826763  8902,6917.921,95.438,540.467,539.105,0.0
54761.0,STARLINK-5202,PAYLOAD,2023-02-15 09:51:26,15.0885376,0.0001177,53.2203,24.4995,74.0535,286.0587,0.00018445,2.65e-05,0.0,0 STARLINK-5202,1 54761U 22175D   23046.41071777  .00002650  00000-0  18445-3 0  9997,2 54761  53.2203  24.4995 0001177  74.0535 286.0587 15.08853760  8932,6917.838,95.437,540.518,538.889,0.0
54761.0,STARLINK-5202,PAYLOAD,2023-02-16 08:06:47,15.08875298,0.0001188,53.2189,20.3343,106.8128,253.2995,0.00025625,3.797e-05,0.0,0 STARLINK-5202,1 54761U 22175D   23047.33805421  .00003797  00000-0  25625-3 0  9991,2 54761  53.2189  20.3343 0001188 106.8128 253.2995 15.08875298  9076,6917.772,95.435,540.459,538.816,0.0
54761.0,STARLINK-5202,PAYLOAD,2023-02-16 09:42:10,15.08881693,0.0001004,53.2188,20.0387,103.9402,256.1702,0.00028943,4.327e-05,0.0,0 STARLINK-5202,1 54761U 22175D   23047.40428781  .00004327  00000-0  28943-3 0  9995,2 54761  53.2188  20.0387 0001004 103.9402 256.1702 15.08881693 11246,6917.753,95.435,540.312,538.923,0.0
54761.0,STARLINK-5202,PAYLOAD,2023-02-17 04:46:52,15.08835886,6.97e-05,53.2205,16.4708,66.6617,293.4448,-0.00014119,-2.534e-05,0.0,0 STARLINK-5202,1 54761U 22175D   23048.19921620 -.00002534  00000-0 -14119-3 0  9992,2 54761  53.2205  16.4708 0000697  66.6617 293.4448 15.08835886  9209,6917.893,95.438,540.24,539.276,0.0
